[{"OBJECT_NAME":"STARLINK-11136 [DTC]","OBJECT_ID":"2024-141K","EPOCH":"2026-01-20T19:49:45.037344","MEAN_MOTION":15.69727409,"ECCENTRICITY":0.00013697,"INCLINATION":53.1586,"RA_OF_ASC_NODE":322.3378,"ARG_OF_PERICENTER":101.9742,"MEAN_ANOMALY":258.1429,"EPHEMERIS_TYPE":0,"CLASSIFICATION_TYPE":"U","NORAD_CAT_ID":60407,"ELEMENT_SET_NO":999,"REV_AT_EPOCH":8417,"BSTAR":-4.41252e-7,"MEAN_MOTION_DOT":-6.43e-6,"MEAN_MOTION_DDOT":0},{"OBJECT_NAME":"STARLINK-11196 [DTC]","OBJECT_ID":"2024-141L","EPOCH":"2026-01-20T19:42:41.465664","MEAN_MOTION":15.69708464,"ECCENTRICITY":0.00010663,"INCLINATION":53.1587,"RA_OF_ASC_NODE":322.3038,"ARG_OF_PERICENTER":87.2327,"MEAN_ANOMALY":272.8813,"EPHEMERIS_TYPE":0,"CLASSIFICATION_TYPE":"U","NORAD_CAT_ID":60408,"ELEMENT_SET_NO":999,"REV_AT_EPOCH":8422,"BSTAR":-2.296765e-6,"MEAN_MOTION_DOT":-8.67e-6,"MEAN_MOTION_DDOT":0},{"OBJECT_NAME":"STARLINK-11174 [DTC]","OBJECT_ID":"2024-141M","EPOCH":"2026-01-20T19:28:33.704544","MEAN_MOTION":15.69711751,"ECCENTRICITY":0.00025256,"INCLINATION":53.1583,"RA_OF_ASC_NODE":322.2383,"ARG_OF_PERICENTER":93.2146,"MEAN_ANOMALY":266.9161,"EPHEMERIS_TYPE":0,"CLASSIFICATION_TYPE":"U","NORAD_CAT_ID":60409,"ELEMENT_SET_NO":999,"REV_AT_EPOCH":8417,"BSTAR":-1.3447283e-5,"MEAN_MOTION_DOT":-2.22e-5,"MEAN_MOTION_DDOT":0},{"OBJECT_NAME":"STARLINK-11191 [DTC]","OBJECT_ID":"2024-141N","EPOCH":"2026-01-20T23:56:36.190176","MEAN_MOTION":15.69675924,"ECCENTRICITY":0.00015903,"INCLINATION":53.1579,"RA_OF_ASC_NODE":321.266,"ARG_OF_PERICENTER":73.1317,"MEAN_ANOMALY":286.9875,"EPHEMERIS_TYPE":0,"CLASSIFICATION_TYPE":"U","NORAD_CAT_ID":60410,"ELEMENT_SET_NO":999,"REV_AT_EPOCH":8425,"BSTAR":-4.7380902e-5,"MEAN_MOTION_DOT":-6.317e-5,"MEAN_MOTION_DDOT":0},{"OBJECT_NAME":"STARLINK-32244","OBJECT_ID":"2024-141P","EPOCH":"2026-01-20T15:46:00.599232","MEAN_MOTION":15.30142697,"ECCENTRICITY":0.00010165,"INCLINATION":53.1585,"RA_OF_ASC_NODE":105.9049,"ARG_OF_PERICENTER":86.2002,"MEAN_ANOMALY":273.9115,"EPHEMERIS_TYPE":0,"CLASSIFICATION_TYPE":"U","NORAD_CAT_ID":60411,"ELEMENT_SET_NO":999,"REV_AT_EPOCH":8222,"BSTAR":-0.00043250596,"MEAN_MOTION_DOT":-0.00013123,"MEAN_MOTION_DDOT":0},{"OBJECT_NAME":"STARLINK-32186","OBJECT_ID":"2024-141Q","EPOCH":"2026-01-20T12:33:28.234080","MEAN_MOTION":15.30056327,"ECCENTRICITY":0.00018115,"INCLINATION":53.1604,"RA_OF_ASC_NODE":106.4926,"ARG_OF_PERICENTER":110.9692,"MEAN_ANOMALY":249.1503,"EPHEMERIS_TYPE":0,"CLASSIFICATION_TYPE":"U","NORAD_CAT_ID":60412,"ELEMENT_SET_NO":999,"REV_AT_EPOCH":8214,"BSTAR":-0.00072928113,"MEAN_MOTION_DOT":-0.000218,"MEAN_MOTION_DDOT":0},{"OBJECT_NAME":"STARLINK-32178","OBJECT_ID":"2024-141R","EPOCH":"2026-01-20T15:27:46.623168","MEAN_MOTION":15.30164312,"ECCENTRICITY":0.00012923,"INCLINATION":53.1598,"RA_OF_ASC_NODE":105.8248,"ARG_OF_PERICENTER":93.9848,"MEAN_ANOMALY":266.1301,"EPHEMERIS_TYPE":0,"CLASSIFICATION_TYPE":"U","NORAD_CAT_ID":60413,"ELEMENT_SET_NO":999,"REV_AT_EPOCH":8216,"BSTAR":-0.00017370241,"MEAN_MOTION_DOT":-5.494e-5,"MEAN_MOTION_DDOT":0},{"OBJECT_NAME":"STARLINK-32234","OBJECT_ID":"2024-141S","EPOCH":"2026-01-20T15:36:51.371712","MEAN_MOTION":15.30192973,"ECCENTRICITY":0.00013753,"INCLINATION":53.1592,"RA_OF_ASC_NODE":105.8656,"ARG_OF_PERICENTER":79.4716,"MEAN_ANOMALY":280.6439,"EPHEMERIS_TYPE":0,"CLASSIFICATION_TYPE":"U","NORAD_CAT_ID":60414,"ELEMENT_SET_NO":999,"REV_AT_EPOCH":8222,"BSTAR":-3.2137637e-5,"MEAN_MOTION_DOT":-1.311e-5,"MEAN_MOTION_DDOT":0},{"OBJECT_NAME":"STARLINK-32265","OBJECT_ID":"2024-141T","EPOCH":"2026-01-20T15:32:18.466944","MEAN_MOTION":15.30184881,"ECCENTRICITY":0.00012251,"INCLINATION":53.1586,"RA_OF_ASC_NODE":105.8435,"ARG_OF_PERICENTER":65.7334,"MEAN_ANOMALY":294.3795,"EPHEMERIS_TYPE":0,"CLASSIFICATION_TYPE":"U","NORAD_CAT_ID":60415,"ELEMENT_SET_NO":999,"REV_AT_EPOCH":8222,"BSTAR":-4.8054825e-5,"MEAN_MOTION_DOT":-1.781e-5,"MEAN_MOTION_DDOT":0},{"OBJECT_NAME":"STARLINK-32197","OBJECT_ID":"2024-141U","EPOCH":"2026-01-20T14:07:27.950016","MEAN_MOTION":15.30208482,"ECCENTRICITY":0.00013911,"INCLINATION":53.1607,"RA_OF_ASC_NODE":96.2245,"ARG_OF_PERICENTER":127.9918,"MEAN_ANOMALY":232.1208,"EPHEMERIS_TYPE":0,"CLASSIFICATION_TYPE":"U","NORAD_CAT_ID":60416,"ELEMENT_SET_NO":999,"REV_AT_EPOCH":8229,"BSTAR":7.441084e-5,"MEAN_MOTION_DOT":1.846e-5,"MEAN_MOTION_DDOT":0},{"OBJECT_NAME":"STARLINK-32255","OBJECT_ID":"2024-141V","EPOCH":"2026-01-20T12:10:47.122176","MEAN_MOTION":15.29714935,"ECCENTRICITY":0.00162435,"INCLINATION":53.1602,"RA_OF_ASC_NODE":106.3945,"ARG_OF_PERICENTER":5.2701,"MEAN_ANOMALY":354.8467,"EPHEMERIS_TYPE":0,"CLASSIFICATION_TYPE":"U","NORAD_CAT_ID":60417,"ELEMENT_SET_NO":999,"REV_AT_EPOCH":8220,"BSTAR":-0.005426665,"MEAN_MOTION_DOT":-0.0015615,"MEAN_MOTION_DDOT":0},{"OBJECT_NAME":"STARLINK-32236","OBJECT_ID":"2024-141W","EPOCH":"2026-01-20T15:12:31.973760","MEAN_MOTION":15.30204762,"ECCENTRICITY":0.0001486,"INCLINATION":53.161,"RA_OF_ASC_NODE":105.7552,"ARG_OF_PERICENTER":99.4808,"MEAN_ANOMALY":260.6361,"EPHEMERIS_TYPE":0,"CLASSIFICATION_TYPE":"U","NORAD_CAT_ID":60418,"ELEMENT_SET_NO":999,"REV_AT_EPOCH":8222,"BSTAR":7.094636e-5,"MEAN_MOTION_DOT":1.743e-5,"MEAN_MOTION_DDOT":0},{"OBJECT_NAME":"STARLINK-32250","OBJECT_ID":"2024-144A","EPOCH":"2026-01-20T12:59:07.069056","MEAN_MOTION":15.30154098,"ECCENTRICITY":0.00017413,"INCLINATION":53.1601,"RA_OF_ASC_NODE":81.0463,"ARG_OF_PERICENTER":76.0045,"MEAN_ANOMALY":284.1149,"EPHEMERIS_TYPE":0,"CLASSIFICATION_TYPE":"U","NORAD_CAT_ID":60425,"ELEMENT_SET_NO":999,"REV_AT_EPOCH":8103,"BSTAR":-0.00019179505,"MEAN_MOTION_DOT":-6.027e-5,"MEAN_MOTION_DDOT":0},{"OBJECT_NAME":"STARLINK-32226","OBJECT_ID":"2024-144B","EPOCH":"2026-01-20T12:57:33.456384","MEAN_MOTION":15.30190544,"ECCENTRICITY":0.00016138,"INCLINATION":53.1594,"RA_OF_ASC_NODE":81.0406,"ARG_OF_PERICENTER":70.1611,"MEAN_ANOMALY":289.9563,"EPHEMERIS_TYPE":0,"CLASSIFICATION_TYPE":"U","NORAD_CAT_ID":60426,"ELEMENT_SET_NO":999,"REV_AT_EPOCH":8193,"BSTAR":-3.4275026e-5,"MEAN_MOTION_DOT":-1.374e-5,"MEAN_MOTION_DDOT":0},{"OBJECT_NAME":"STARLINK-32254","OBJECT_ID":"2024-144C","EPOCH":"2026-01-20T11:05:14.115552","MEAN_MOTION":15.30248341,"ECCENTRICITY":0.00013367,"INCLINATION":53.158,"RA_OF_ASC_NODE":81.2625,"ARG_OF_PERICENTER":96.3498,"MEAN_ANOMALY":263.7655,"EPHEMERIS_TYPE":0,"CLASSIFICATION_TYPE":"U","NORAD_CAT_ID":60427,"ELEMENT_SET_NO":999,"REV_AT_EPOCH":8196,"BSTAR":0.00054325075,"MEAN_MOTION_DOT":0.00015789,"MEAN_MOTION_DDOT":0},{"OBJECT_NAME":"STARLINK-32193","OBJECT_ID":"2024-144D","EPOCH":"2026-01-20T12:54:32.506272","MEAN_MOTION":15.30167979,"ECCENTRICITY":0.00015757,"INCLINATION":53.1608,"RA_OF_ASC_NODE":81.0219,"ARG_OF_PERICENTER":154.1752,"MEAN_ANOMALY":205.9328,"EPHEMERIS_TYPE":0,"CLASSIFICATION_TYPE":"U","NORAD_CAT_ID":60428,"ELEMENT_SET_NO":999,"REV_AT_EPOCH":8197,"BSTAR":-0.00011465032,"MEAN_MOTION_DOT":-3.75e-5,"MEAN_MOTION_DDOT":0}]
