STARLINK-11136 [DTC]    
1 60407U 24141K   26020.82621571 -.00000643  00000+0 -44125-6 0  9997
2 60407  53.1586 322.3378 0001369 101.9742 258.1429 15.69727409 84179
STARLINK-11196 [DTC]    
1 60408U 24141L   26020.82131326 -.00000867  00000+0 -22968-5 0  9990
2 60408  53.1587 322.3038 0001066  87.2327 272.8813 15.69708464 84229
STARLINK-11174 [DTC]    
1 60409U 24141M   26020.81150121 -.00002220  00000+0 -13447-4 0  9990
2 60409  53.1583 322.2383 0002525  93.2146 266.9161 15.69711751 84172
STARLINK-11191 [DTC]    
1 60410U 24141N   26020.99764109 -.00006317  00000+0 -47381-4 0  9993
2 60410  53.1579 321.2660 0001590  73.1317 286.9875 15.69675924 84258
STARLINK-32244          
1 60411U 24141P   26020.65695138 -.00013123  00000+0 -43251-3 0  9996
2 60411  53.1585 105.9049 0001016  86.2002 273.9115 15.30142697 82225
STARLINK-32186          
1 60412U 24141Q   26020.52324345 -.00021800  00000+0 -72928-3 0  9996
2 60412  53.1604 106.4926 0001811 110.9692 249.1503 15.30056327 82142
STARLINK-32178          
1 60413U 24141R   26020.64428962 -.00005494  00000+0 -17370-3 0  9991
2 60413  53.1598 105.8248 0001292  93.9848 266.1301 15.30164312 82162
STARLINK-32234          
1 60414U 24141S   26020.65059458 -.00001311  00000+0 -32138-4 0  9997
2 60414  53.1592 105.8656 0001375  79.4716 280.6439 15.30192973 82229
STARLINK-32265          
1 60415U 24141T   26020.64743596 -.00001781  00000+0 -48055-4 0  9996
2 60415  53.1586 105.8435 0001225  65.7334 294.3795 15.30184881 82222
STARLINK-32197          
1 60416U 24141U   26020.58851794  .00001846  00000+0  74411-4 0  9995
2 60416  53.1607  96.2245 0001391 127.9918 232.1208 15.30208482 82292
STARLINK-32255          
1 60417U 24141V   26020.50748984 -.00156150  00000+0 -54267-2 0  9990
2 60417  53.1602 106.3945 0016243   5.2701 354.8467 15.29714935 82201
STARLINK-32236          
1 60418U 24141W   26020.63370340  .00001743  00000+0  70946-4 0  9991
2 60418  53.1610 105.7552 0001486  99.4808 260.6361 15.30204762 82227
STARLINK-32250          
1 60425U 24144A   26020.54105404 -.00006027  00000+0 -19180-3 0  9993
2 60425  53.1601  81.0463 0001741  76.0045 284.1149 15.30154098 81039
STARLINK-32226          
1 60426U 24144B   26020.53997056 -.00001374  00000+0 -34275-4 0  9998
2 60426  53.1594  81.0406 0001613  70.1611 289.9563 15.30190544 81938
STARLINK-32254          
1 60427U 24144C   26020.46196893  .00015789  00000+0  54325-3 0  9991
2 60427  53.1580  81.2625 0001336  96.3498 263.7655 15.30248341 81968
STARLINK-32193          
1 60428U 24144D   26020.53787623 -.00003750  00000+0 -11465-3 0  9992
2 60428  53.1608  81.0219 0001575 154.1752 205.9328 15.30167979 81971
